GRID-01
1 43663U 18083B   24237.07595363  .00224969  00000-0  14887-2 0  9990
2 43663  97.3050 272.7507 0000839  24.7657 335.3648 15.74892847323835
GRID-03B&GRID-04
1 51830U 22019G   24237.51158944  .00360352  00000-0  23743-2 0  9996
2 51830  97.4147 321.2859 0009965 277.0432  82.9700 15.74566807138507
GRID-05B
1 55254U 23007G   24237.84309067  .00172642  00000-0  16253-2 0  9999
2 55254  97.3035 315.8994 0002763 256.3044 103.7909 15.66548423 90216
GRID-06B
1 55252U 23007E   24237.86659026  .00131981  00000-0  15565-2 0  9998
2 55252  97.3029 313.8499 0004390 303.4203  56.6634 15.60908568 90107
GRID-07&GRID-08B
1 55261U 23007P   24237.19299501  .00208503  00000-0  14349-2 0  9996
2 55261  97.3011 319.1776 0005278 301.2174  58.8573 15.74013171 90405
GRID-10B
1 60088U 24116A   24237.66747379  .00005679  00000-0  71405-3 0  9990
2 60088  28.9967 329.1424 0004646 149.6191 210.4672 14.80309802  9366